<?xml version="1.0" encoding="UTF-8"?>
<ndm xmlns:xsi="http://www.w3.org/2001/XMLSchema-instance" xsi:noNamespaceSchemaLocation="https://sanaregistry.org/r/ndmxml_unqualified/ndmxml-2.0.0-master-2.0.xsd">
<omm id="CCSDS_OMM_VERS" version="2.0">
<header><CREATION_DATE/><ORIGINATOR/></header><body><segment><metadata><OBJECT_NAME>KUIPER-00044</OBJECT_NAME><OBJECT_ID>2025-134F</OBJECT_ID><CENTER_NAME>EARTH</CENTER_NAME><REF_FRAME>TEME</REF_FRAME><TIME_SYSTEM>UTC</TIME_SYSTEM><MEAN_ELEMENT_THEORY>SGP4</MEAN_ELEMENT_THEORY></metadata><data><meanElements><EPOCH>2025-10-27T12:19:51.749760</EPOCH><MEAN_MOTION>14.79882290</MEAN_MOTION><ECCENTRICITY>.0012546</ECCENTRICITY><INCLINATION>51.8977</INCLINATION><RA_OF_ASC_NODE>115.4954</RA_OF_ASC_NODE><ARG_OF_PERICENTER>187.6184</ARG_OF_PERICENTER><MEAN_ANOMALY>172.4590</MEAN_ANOMALY></meanElements><tleParameters><EPHEMERIS_TYPE>0</EPHEMERIS_TYPE><CLASSIFICATION_TYPE>U</CLASSIFICATION_TYPE><NORAD_CAT_ID>64505</NORAD_CAT_ID><ELEMENT_SET_NO>999</ELEMENT_SET_NO><REV_AT_EPOCH>2016</REV_AT_EPOCH><BSTAR>.16427E-3</BSTAR><MEAN_MOTION_DOT>.1028E-4</MEAN_MOTION_DOT><MEAN_MOTION_DDOT>0</MEAN_MOTION_DDOT></tleParameters></data></segment></body></omm>
<omm id="CCSDS_OMM_VERS" version="2.0">
<header><CREATION_DATE/><ORIGINATOR/></header><body><segment><metadata><OBJECT_NAME>KUIPER-00046</OBJECT_NAME><OBJECT_ID>2025-134G</OBJECT_ID><CENTER_NAME>EARTH</CENTER_NAME><REF_FRAME>TEME</REF_FRAME><TIME_SYSTEM>UTC</TIME_SYSTEM><MEAN_ELEMENT_THEORY>SGP4</MEAN_ELEMENT_THEORY></metadata><data><meanElements><EPOCH>2025-10-27T12:23:23.189568</EPOCH><MEAN_MOTION>14.79636231</MEAN_MOTION><ECCENTRICITY>.0012001</ECCENTRICITY><INCLINATION>51.8983</INCLINATION><RA_OF_ASC_NODE>111.9372</RA_OF_ASC_NODE><ARG_OF_PERICENTER>197.8143</ARG_OF_PERICENTER><MEAN_ANOMALY>162.2400</MEAN_ANOMALY></meanElements><tleParameters><EPHEMERIS_TYPE>0</EPHEMERIS_TYPE><CLASSIFICATION_TYPE>U</CLASSIFICATION_TYPE><NORAD_CAT_ID>64506</NORAD_CAT_ID><ELEMENT_SET_NO>999</ELEMENT_SET_NO><REV_AT_EPOCH>2021</REV_AT_EPOCH><BSTAR>.58833E-3</BSTAR><MEAN_MOTION_DOT>.4238E-4</MEAN_MOTION_DOT><MEAN_MOTION_DDOT>0</MEAN_MOTION_DDOT></tleParameters></data></segment></body></omm>
<omm id="CCSDS_OMM_VERS" version="2.0">
<header><CREATION_DATE/><ORIGINATOR/></header><body><segment><metadata><OBJECT_NAME>KUIPER-00047</OBJECT_NAME><OBJECT_ID>2025-134H</OBJECT_ID><CENTER_NAME>EARTH</CENTER_NAME><REF_FRAME>TEME</REF_FRAME><TIME_SYSTEM>UTC</TIME_SYSTEM><MEAN_ELEMENT_THEORY>SGP4</MEAN_ELEMENT_THEORY></metadata><data><meanElements><EPOCH>2025-10-27T12:00:02.000160</EPOCH><MEAN_MOTION>15.10701822</MEAN_MOTION><ECCENTRICITY>.0009831</ECCENTRICITY><INCLINATION>51.8737</INCLINATION><RA_OF_ASC_NODE>86.3260</RA_OF_ASC_NODE><ARG_OF_PERICENTER>217.5967</ARG_OF_PERICENTER><MEAN_ANOMALY>232.3926</MEAN_ANOMALY></meanElements><tleParameters><EPHEMERIS_TYPE>0</EPHEMERIS_TYPE><CLASSIFICATION_TYPE>U</CLASSIFICATION_TYPE><NORAD_CAT_ID>64507</NORAD_CAT_ID><ELEMENT_SET_NO>999</ELEMENT_SET_NO><REV_AT_EPOCH>456</REV_AT_EPOCH><BSTAR>-.75789E-1</BSTAR><MEAN_MOTION_DOT>-.1170537E-1</MEAN_MOTION_DOT><MEAN_MOTION_DDOT>0</MEAN_MOTION_DDOT></tleParameters></data></segment></body></omm>
<omm id="CCSDS_OMM_VERS" version="2.0">
<header><CREATION_DATE/><ORIGINATOR/></header><body><segment><metadata><OBJECT_NAME>KUIPER-00048</OBJECT_NAME><OBJECT_ID>2025-134J</OBJECT_ID><CENTER_NAME>EARTH</CENTER_NAME><REF_FRAME>TEME</REF_FRAME><TIME_SYSTEM>UTC</TIME_SYSTEM><MEAN_ELEMENT_THEORY>SGP4</MEAN_ELEMENT_THEORY></metadata><data><meanElements><EPOCH>2025-10-27T12:00:02.000160</EPOCH><MEAN_MOTION>15.03382408</MEAN_MOTION><ECCENTRICITY>.0002551</ECCENTRICITY><INCLINATION>51.8873</INCLINATION><RA_OF_ASC_NODE>85.6922</RA_OF_ASC_NODE><ARG_OF_PERICENTER>272.4415</ARG_OF_PERICENTER><MEAN_ANOMALY>281.1650</MEAN_ANOMALY></meanElements><tleParameters><EPHEMERIS_TYPE>0</EPHEMERIS_TYPE><CLASSIFICATION_TYPE>U</CLASSIFICATION_TYPE><NORAD_CAT_ID>64508</NORAD_CAT_ID><ELEMENT_SET_NO>999</ELEMENT_SET_NO><REV_AT_EPOCH>509</REV_AT_EPOCH><BSTAR>-.1205E+0</BSTAR><MEAN_MOTION_DOT>-.1508167E-1</MEAN_MOTION_DOT><MEAN_MOTION_DDOT>0</MEAN_MOTION_DDOT></tleParameters></data></segment></body></omm>
<omm id="CCSDS_OMM_VERS" version="2.0">
<header><CREATION_DATE/><ORIGINATOR/></header><body><segment><metadata><OBJECT_NAME>KUIPER-00049</OBJECT_NAME><OBJECT_ID>2025-134K</OBJECT_ID><CENTER_NAME>EARTH</CENTER_NAME><REF_FRAME>TEME</REF_FRAME><TIME_SYSTEM>UTC</TIME_SYSTEM><MEAN_ELEMENT_THEORY>SGP4</MEAN_ELEMENT_THEORY></metadata><data><meanElements><EPOCH>2025-10-26T17:20:05.746272</EPOCH><MEAN_MOTION>14.79937487</MEAN_MOTION><ECCENTRICITY>.00036519</ECCENTRICITY><INCLINATION>51.8996</INCLINATION><RA_OF_ASC_NODE>101.4538</RA_OF_ASC_NODE><ARG_OF_PERICENTER>178.6957</ARG_OF_PERICENTER><MEAN_ANOMALY>181.4015</MEAN_ANOMALY></meanElements><tleParameters><EPHEMERIS_TYPE>0</EPHEMERIS_TYPE><CLASSIFICATION_TYPE>U</CLASSIFICATION_TYPE><NORAD_CAT_ID>64509</NORAD_CAT_ID><ELEMENT_SET_NO>999</ELEMENT_SET_NO><REV_AT_EPOCH>2029</REV_AT_EPOCH><BSTAR>.63510391E-3</BSTAR><MEAN_MOTION_DOT>.4624E-4</MEAN_MOTION_DOT><MEAN_MOTION_DDOT>0</MEAN_MOTION_DDOT></tleParameters></data></segment></body></omm>
<omm id="CCSDS_OMM_VERS" version="2.0">
<header><CREATION_DATE/><ORIGINATOR/></header><body><segment><metadata><OBJECT_NAME>KUIPER-00050</OBJECT_NAME><OBJECT_ID>2025-134L</OBJECT_ID><CENTER_NAME>EARTH</CENTER_NAME><REF_FRAME>TEME</REF_FRAME><TIME_SYSTEM>UTC</TIME_SYSTEM><MEAN_ELEMENT_THEORY>SGP4</MEAN_ELEMENT_THEORY></metadata><data><meanElements><EPOCH>2025-10-26T19:44:25.963008</EPOCH><MEAN_MOTION>14.95857963</MEAN_MOTION><ECCENTRICITY>.0005217</ECCENTRICITY><INCLINATION>51.8893</INCLINATION><RA_OF_ASC_NODE>99.8978</RA_OF_ASC_NODE><ARG_OF_PERICENTER>223.6394</ARG_OF_PERICENTER><MEAN_ANOMALY>136.4163</MEAN_ANOMALY></meanElements><tleParameters><EPHEMERIS_TYPE>0</EPHEMERIS_TYPE><CLASSIFICATION_TYPE>U</CLASSIFICATION_TYPE><NORAD_CAT_ID>64510</NORAD_CAT_ID><ELEMENT_SET_NO>999</ELEMENT_SET_NO><REV_AT_EPOCH>2032</REV_AT_EPOCH><BSTAR>.63132E-3</BSTAR><MEAN_MOTION_DOT>.6883E-4</MEAN_MOTION_DOT><MEAN_MOTION_DDOT>0</MEAN_MOTION_DDOT></tleParameters></data></segment></body></omm>
<omm id="CCSDS_OMM_VERS" version="2.0">
<header><CREATION_DATE/><ORIGINATOR/></header><body><segment><metadata><OBJECT_NAME>KUIPER-00051</OBJECT_NAME><OBJECT_ID>2025-134M</OBJECT_ID><CENTER_NAME>EARTH</CENTER_NAME><REF_FRAME>TEME</REF_FRAME><TIME_SYSTEM>UTC</TIME_SYSTEM><MEAN_ELEMENT_THEORY>SGP4</MEAN_ELEMENT_THEORY></metadata><data><meanElements><EPOCH>2025-10-27T03:07:32.141568</EPOCH><MEAN_MOTION>14.79905076</MEAN_MOTION><ECCENTRICITY>.00020311</ECCENTRICITY><INCLINATION>51.9011</INCLINATION><RA_OF_ASC_NODE>97.2086</RA_OF_ASC_NODE><ARG_OF_PERICENTER>204.2906</ARG_OF_PERICENTER><MEAN_ANOMALY>155.7961</MEAN_ANOMALY></meanElements><tleParameters><EPHEMERIS_TYPE>0</EPHEMERIS_TYPE><CLASSIFICATION_TYPE>U</CLASSIFICATION_TYPE><NORAD_CAT_ID>64511</NORAD_CAT_ID><ELEMENT_SET_NO>999</ELEMENT_SET_NO><REV_AT_EPOCH>2038</REV_AT_EPOCH><BSTAR>-.27140408E-2</BSTAR><MEAN_MOTION_DOT>-.20834E-3</MEAN_MOTION_DOT><MEAN_MOTION_DDOT>0</MEAN_MOTION_DDOT></tleParameters></data></segment></body></omm>
<omm id="CCSDS_OMM_VERS" version="2.0">
<header><CREATION_DATE/><ORIGINATOR/></header><body><segment><metadata><OBJECT_NAME>KUIPER-00052</OBJECT_NAME><OBJECT_ID>2025-134N</OBJECT_ID><CENTER_NAME>EARTH</CENTER_NAME><REF_FRAME>TEME</REF_FRAME><TIME_SYSTEM>UTC</TIME_SYSTEM><MEAN_ELEMENT_THEORY>SGP4</MEAN_ELEMENT_THEORY></metadata><data><meanElements><EPOCH>2025-10-27T02:03:57.069216</EPOCH><MEAN_MOTION>15.62951586</MEAN_MOTION><ECCENTRICITY>.00062742</ECCENTRICITY><INCLINATION>51.8703</INCLINATION><RA_OF_ASC_NODE>70.7019</RA_OF_ASC_NODE><ARG_OF_PERICENTER>246.0866</ARG_OF_PERICENTER><MEAN_ANOMALY>113.9475</MEAN_ANOMALY></meanElements><tleParameters><EPHEMERIS_TYPE>0</EPHEMERIS_TYPE><CLASSIFICATION_TYPE>U</CLASSIFICATION_TYPE><NORAD_CAT_ID>64512</NORAD_CAT_ID><ELEMENT_SET_NO>999</ELEMENT_SET_NO><REV_AT_EPOCH>2074</REV_AT_EPOCH><BSTAR>.16725304E-2</BSTAR><MEAN_MOTION_DOT>.157103E-2</MEAN_MOTION_DOT><MEAN_MOTION_DDOT>0</MEAN_MOTION_DDOT></tleParameters></data></segment></body></omm>

</ndm>
