KUIPER-00044            
1 64505U 25134F   25300.51379340  .00001028  00000+0  16427-3 0  9990
2 64505  51.8977 115.4954 0012546 187.6184 172.4590 14.79882290 20168
KUIPER-00046            
1 64506U 25134G   25300.51624062  .00004238  00000+0  58833-3 0  9998
2 64506  51.8983 111.9372 0012001 197.8143 162.2400 14.79636231 20210
KUIPER-00047            
1 64507U 25134H   25300.50002315 -.01170537  00000+0 -75789-1 0  9995
2 64507  51.8737  86.3260 0009831 217.5967 232.3926 15.10701822  4567
KUIPER-00048            
1 64508U 25134J   25300.50002315 -.01508167  00000+0 -12050+0 0  9990
2 64508  51.8873  85.6922 0002551 272.4415 281.1650 15.03382408  5098
KUIPER-00049            
1 64509U 25134K   25299.72228873  .00004624  00000+0  63510-3 0  9998
2 64509  51.8996 101.4538 0003651 178.6957 181.4015 14.79937487 20296
KUIPER-00050            
1 64510U 25134L   25299.82252272  .00006883  00000+0  63132-3 0  9990
2 64510  51.8893  99.8978 0005217 223.6394 136.4163 14.95857963 20324
KUIPER-00051            
1 64511U 25134M   25300.13023312 -.00020834  00000+0 -27140-2 0  9991
2 64511  51.9011  97.2086 0002031 204.2906 155.7961 14.79905076 20382
KUIPER-00052            
1 64512U 25134N   25300.08607719  .00157103  00000+0  16725-2 0  9990
2 64512  51.8703  70.7019 0006274 246.0866 113.9475 15.62951586 20740
